start=new Date('2022-05-22T00:00:00.000Z').valueOf();
sats=[{"OBJECT_TYPE":"PAYLOAD","RA_OF_ASC_NODE":"189.5083","EPOCH":"2022-05-21T22:00:00.999936","TLE_LINE2":"2 52488  53.2143 189.5083 0001981  28.6658  68.9372 15.73166022  1307","DECAY_DATE":null,"REV_AT_EPOCH":"130","INCLINATION":"53.2143","COUNTRY_CODE":"US","MEAN_MOTION_DDOT":"0.0000000000000","PERIAPSIS":"348.524","ELEMENT_SET_NO":"999","SITE":"AFETR","MEAN_ANOMALY":"68.9372","MEAN_MOTION_DOT":"0.00028834","CENTER_NAME":"EARTH","MEAN_ELEMENT_THEORY":"SGP4","PERIOD":"91.535","CLASSIFICATION_TYPE":"U","NORAD_CAT_ID":"52488","OBJECT_ID":"2022-049AP","TIME_SYSTEM":"UTC","ECCENTRICITY":"0.00019810","SEMIMAJOR_AXIS":"6727.992","REF_FRAME":"TEME","GP_ID":"204196265","MEAN_MOTION":"15.73166022","FILE":"3457577","APOAPSIS":"351.190","LAUNCH_DATE":"2022-05-06","RCS_SIZE":"MEDIUM","OBJECT_NAME":"STARLINK-3892","TLE_LINE1":"1 52488U 22049AP  22141.91667824  .00028834  00000-0  20945-3 0  9995","ARG_OF_PERICENTER":"28.6658","EPHEMERIS_TYPE":"0","BSTAR":"0.00020945000000"},{"RCS_SIZE":"LARGE","OBJECT_NAME":"STARLINK-3923","TLE_LINE1":"1 52489U 22049AQ  22141.91667824 -.00037393  00000-0 -26308-3 0  9997","FILE":"3457577","MEAN_MOTION":"15.73207210","APOAPSIS":"351.029","LAUNCH_DATE":"2022-05-06","ARG_OF_PERICENTER":"26.7271","EPHEMERIS_TYPE":"0","BSTAR":"-0.00026308000000","CLASSIFICATION_TYPE":"U","PERIOD":"91.533","OBJECT_ID":"2022-049AQ","NORAD_CAT_ID":"52489","TIME_SYSTEM":"UTC","GP_ID":"204195884","ECCENTRICITY":"0.00019170","SEMIMAJOR_AXIS":"6727.875","REF_FRAME":"TEME","SITE":"AFETR","MEAN_ANOMALY":"69.0141","ELEMENT_SET_NO":"999","MEAN_ELEMENT_THEORY":"SGP4","MEAN_MOTION_DOT":"-0.00037393","CENTER_NAME":"EARTH","RA_OF_ASC_NODE":"189.5131","EPOCH":"2022-05-21T22:00:00.999936","TLE_LINE2":"2 52489  53.2147 189.5131 0001917  26.7271  69.0141 15.73207210  1306","OBJECT_TYPE":"PAYLOAD","MEAN_MOTION_DDOT":"0.0000000000000","PERIAPSIS":"348.450","DECAY_DATE":null,"REV_AT_EPOCH":"130","INCLINATION":"53.2147","COUNTRY_CODE":"US"},{"REV_AT_EPOCH":"130","DECAY_DATE":null,"COUNTRY_CODE":"US","INCLINATION":"53.2144","PERIAPSIS":"348.439","MEAN_MOTION_DDOT":"0.0000000000000","OBJECT_TYPE":"PAYLOAD","EPOCH":"2022-05-21T22:00:00.999936","RA_OF_ASC_NODE":"189.5058","TLE_LINE2":"2 52490  53.2144 189.5058 0001942  28.8879  69.8990 15.73205108  1302","MEAN_MOTION_DOT":"0.00047695","CENTER_NAME":"EARTH","MEAN_ELEMENT_THEORY":"SGP4","ELEMENT_SET_NO":"999","SITE":"AFETR","MEAN_ANOMALY":"69.8990","ECCENTRICITY":"0.00019420","REF_FRAME":"TEME","SEMIMAJOR_AXIS":"6727.881","GP_ID":"204196089","CLASSIFICATION_TYPE":"U","PERIOD":"91.533","OBJECT_ID":"2022-049AR","NORAD_CAT_ID":"52490","TIME_SYSTEM":"UTC","ARG_OF_PERICENTER":"28.8879","BSTAR":"0.00034223000000","EPHEMERIS_TYPE":"0","APOAPSIS":"351.052","MEAN_MOTION":"15.73205108","FILE":"3457577","LAUNCH_DATE":"2022-05-06","OBJECT_NAME":"STARLINK-3914","RCS_SIZE":"MEDIUM","TLE_LINE1":"1 52490U 22049AR  22141.91667824  .00047695  00000-0  34223-3 0  9998"},{"CLASSIFICATION_TYPE":"U","PERIOD":"91.532","NORAD_CAT_ID":"52491","TIME_SYSTEM":"UTC","OBJECT_ID":"2022-049AS","ECCENTRICITY":"0.00019530","SEMIMAJOR_AXIS":"6727.838","REF_FRAME":"TEME","GP_ID":"204195665","FILE":"3457577","MEAN_MOTION":"15.73220209","APOAPSIS":"351.017","LAUNCH_DATE":"2022-05-06","OBJECT_NAME":"STARLINK-3908","RCS_SIZE":"MEDIUM","TLE_LINE1":"1 52491U 22049AS  22141.91667824  .00074474  00000-0  52988-3 0  9992","ARG_OF_PERICENTER":"17.6135","EPHEMERIS_TYPE":"0","BSTAR":"0.00052988000000","OBJECT_TYPE":"PAYLOAD","RA_OF_ASC_NODE":"189.5106","EPOCH":"2022-05-21T22:00:00.999936","TLE_LINE2":"2 52491  53.2147 189.5106 0001953  17.6135  79.2669 15.73220209  1300","DECAY_DATE":null,"REV_AT_EPOCH":"130","INCLINATION":"53.2147","COUNTRY_CODE":"US","MEAN_MOTION_DDOT":"0.0000000000000","PERIAPSIS":"348.389","ELEMENT_SET_NO":"999","SITE":"AFETR","MEAN_ANOMALY":"79.2669","MEAN_MOTION_DOT":"0.00074474","CENTER_NAME":"EARTH","MEAN_ELEMENT_THEORY":"SGP4"},{"RA_OF_ASC_NODE":"189.5028","EPOCH":"2022-05-21T22:00:00.999936","TLE_LINE2":"2 52492  53.2140 189.5028 0001982  35.7659  64.3483 15.73186785  1300","OBJECT_TYPE":"PAYLOAD","MEAN_MOTION_DDOT":"0.0000000000000","PERIAPSIS":"348.464","DECAY_DATE":null,"REV_AT_EPOCH":"130","INCLINATION":"53.2140","COUNTRY_CODE":"US","SITE":"AFETR","MEAN_ANOMALY":"64.3483","ELEMENT_SET_NO":"999","MEAN_ELEMENT_THEORY":"SGP4","MEAN_MOTION_DOT":"0.00050757","CENTER_NAME":"EARTH","CLASSIFICATION_TYPE":"U","PERIOD":"91.534","NORAD_CAT_ID":"52492","OBJECT_ID":"2022-049AT","TIME_SYSTEM":"UTC","GP_ID":"204196206","ECCENTRICITY":"0.00019820","SEMIMAJOR_AXIS":"6727.933","REF_FRAME":"TEME","RCS_SIZE":"MEDIUM","OBJECT_NAME":"STARLINK-3916","TLE_LINE1":"1 52492U 22049AT  22141.91667824  .00050757  00000-0  36407-3 0  9999","FILE":"3457577","MEAN_MOTION":"15.73186785","APOAPSIS":"351.131","LAUNCH_DATE":"2022-05-06","ARG_OF_PERICENTER":"35.7659","EPHEMERIS_TYPE":"0","BSTAR":"0.00036407000000"},{"ELEMENT_SET_NO":"999","SITE":"AFETR","MEAN_ANOMALY":"70.5239","MEAN_MOTION_DOT":"-0.00004136","CENTER_NAME":"EARTH","MEAN_ELEMENT_THEORY":"SGP4","OBJECT_TYPE":"PAYLOAD","RA_OF_ASC_NODE":"189.5077","EPOCH":"2022-05-21T22:00:00.999936","TLE_LINE2":"2 52493  53.2146 189.5077 0001893  27.7069  70.5239 15.73233681  1304","DECAY_DATE":null,"REV_AT_EPOCH":"130","INCLINATION":"53.2146","COUNTRY_CODE":"US","MEAN_MOTION_DDOT":"0.0000000000000","PERIAPSIS":"348.391","MEAN_MOTION":"15.73233681","FILE":"3457577","APOAPSIS":"350.938","LAUNCH_DATE":"2022-05-06","RCS_SIZE":"MEDIUM","OBJECT_NAME":"STARLINK-3883","TLE_LINE1":"1 52493U 22049AU  22141.91667824 -.00004136  00000-0 -25019-4 0  9990","ARG_OF_PERICENTER":"27.7069","EPHEMERIS_TYPE":"0","BSTAR":"-0.00002501900000","CLASSIFICATION_TYPE":"U","PERIOD":"91.531","OBJECT_ID":"2022-049AU","NORAD_CAT_ID":"52493","TIME_SYSTEM":"UTC","ECCENTRICITY":"0.00018930","SEMIMAJOR_AXIS":"6727.799","REF_FRAME":"TEME","GP_ID":"204195563"},{"GP_ID":"204195768","REF_FRAME":"TEME","SEMIMAJOR_AXIS":"6727.919","ECCENTRICITY":"0.00019240","TIME_SYSTEM":"UTC","NORAD_CAT_ID":"52494","OBJECT_ID":"2022-049AV","PERIOD":"91.534","CLASSIFICATION_TYPE":"U","BSTAR":"0.00028009000000","EPHEMERIS_TYPE":"0","ARG_OF_PERICENTER":"23.4876","TLE_LINE1":"1 52494U 22049AV  22141.91667824  .00038858  00000-0  28009-3 0  9998","RCS_SIZE":"MEDIUM","OBJECT_NAME":"STARLINK-3857","LAUNCH_DATE":"2022-05-06","APOAPSIS":"351.078","FILE":"3457577","MEAN_MOTION":"15.73191737","PERIAPSIS":"348.489","MEAN_MOTION_DDOT":"0.0000000000000","COUNTRY_CODE":"US","INCLINATION":"53.2138","REV_AT_EPOCH":"130","DECAY_DATE":null,"TLE_LINE2":"2 52494  53.2138 189.4973 0001924  23.4876  79.1379 15.73191737  1309","EPOCH":"2022-05-21T22:00:00.999936","RA_OF_ASC_NODE":"189.4973","OBJECT_TYPE":"PAYLOAD","MEAN_ELEMENT_THEORY":"SGP4","CENTER_NAME":"EARTH","MEAN_MOTION_DOT":"0.00038858","MEAN_ANOMALY":"79.1379","SITE":"AFETR","ELEMENT_SET_NO":"999"},{"REV_AT_EPOCH":"130","DECAY_DATE":null,"COUNTRY_CODE":"US","INCLINATION":"53.2141","PERIAPSIS":"348.415","MEAN_MOTION_DDOT":"0.0000000000000","OBJECT_TYPE":"PAYLOAD","EPOCH":"2022-05-21T22:00:00.999936","RA_OF_ASC_NODE":"189.5045","TLE_LINE2":"2 52495  53.2141 189.5045 0001980  20.7992  78.6781 15.73204678  1306","MEAN_MOTION_DOT":"-0.00030349","CENTER_NAME":"EARTH","MEAN_ELEMENT_THEORY":"SGP4","ELEMENT_SET_NO":"999","SITE":"AFETR","MEAN_ANOMALY":"78.6781","ECCENTRICITY":"0.00019800","REF_FRAME":"TEME","SEMIMAJOR_AXIS":"6727.882","GP_ID":"204195987","CLASSIFICATION_TYPE":"U","PERIOD":"91.533","TIME_SYSTEM":"UTC","NORAD_CAT_ID":"52495","OBJECT_ID":"2022-049AW","ARG_OF_PERICENTER":"20.7992","BSTAR":"-0.00021253000000","EPHEMERIS_TYPE":"0","APOAPSIS":"351.079","MEAN_MOTION":"15.73204678","FILE":"3457577","LAUNCH_DATE":"2022-05-06","OBJECT_NAME":"STARLINK-3905","RCS_SIZE":"LARGE","TLE_LINE1":"1 52495U 22049AW  22141.91667824 -.00030349  00000-0 -21253-3 0  9992"},{"ECCENTRICITY":"0.00083970","SEMIMAJOR_AXIS":"6678.299","REF_FRAME":"TEME","GP_ID":"204196266","PERIOD":"90.523","CLASSIFICATION_TYPE":"U","NORAD_CAT_ID":"52496","TIME_SYSTEM":"UTC","OBJECT_ID":"2022-049AX","ARG_OF_PERICENTER":"295.1031","EPHEMERIS_TYPE":"0","BSTAR":"-0.00236410000000","FILE":"3457577","MEAN_MOTION":"15.90757441","APOAPSIS":"305.772","LAUNCH_DATE":"2022-05-06","RCS_SIZE":"LARGE","OBJECT_NAME":"STARLINK-3871","TLE_LINE1":"1 52496U 22049AX  22141.91667824 -.00758404  18377-3 -23641-2 0  9993","DECAY_DATE":null,"REV_AT_EPOCH":"130","INCLINATION":"53.2177","COUNTRY_CODE":"US","MEAN_MOTION_DDOT":"0.0001837700000","PERIAPSIS":"294.556","OBJECT_TYPE":"PAYLOAD","RA_OF_ASC_NODE":"188.4055","EPOCH":"2022-05-21T22:00:00.999936","TLE_LINE2":"2 52496  53.2177 188.4055 0008397 295.1031 339.0946 15.90757441  1303","MEAN_MOTION_DOT":"-0.00758404","CENTER_NAME":"EARTH","MEAN_ELEMENT_THEORY":"SGP4","ELEMENT_SET_NO":"999","SITE":"AFETR","MEAN_ANOMALY":"339.0946"},{"MEAN_ANOMALY":"69.7420","SITE":"AFETR","ELEMENT_SET_NO":"999","MEAN_ELEMENT_THEORY":"SGP4","CENTER_NAME":"EARTH","MEAN_MOTION_DOT":"0.00025637","TLE_LINE2":"2 52497  53.2138 189.5017 0001910  31.0372  69.7420 15.73180659  1306","EPOCH":"2022-05-21T22:00:00.999936","RA_OF_ASC_NODE":"189.5017","OBJECT_TYPE":"PAYLOAD","PERIAPSIS":"348.530","MEAN_MOTION_DDOT":"0.0000000000000","COUNTRY_CODE":"US","INCLINATION":"53.2138","REV_AT_EPOCH":"130","DECAY_DATE":null,"TLE_LINE1":"1 52497U 22049AY  22141.91667824  .00025637  00000-0  18667-3 0  9991","OBJECT_NAME":"STARLINK-3884","RCS_SIZE":"MEDIUM","LAUNCH_DATE":"2022-05-06","APOAPSIS":"351.100","FILE":"3457577","MEAN_MOTION":"15.73180659","BSTAR":"0.00018667000000","EPHEMERIS_TYPE":"0","ARG_OF_PERICENTER":"31.0372","NORAD_CAT_ID":"52497","OBJECT_ID":"2022-049AY","TIME_SYSTEM":"UTC","CLASSIFICATION_TYPE":"U","PERIOD":"91.534","GP_ID":"204195885","REF_FRAME":"TEME","SEMIMAJOR_AXIS":"6727.950","ECCENTRICITY":"0.00019100"}];
